[{"OBJECT_NAME":"STARLINK-34838","OBJECT_ID":"2025-189W","EPOCH":"2026-03-09T16:49:45.752736","MEAN_MOTION":15.30201971,"ECCENTRICITY":0.00010308,"INCLINATION":53.1606,"RA_OF_ASC_NODE":207.0316,"ARG_OF_PERICENTER":73.3677,"MEAN_ANOMALY":286.7437,"EPHEMERIS_TYPE":0,"CLASSIFICATION_TYPE":"U","NORAD_CAT_ID":65343,"ELEMENT_SET_NO":999,"REV_AT_EPOCH":3111,"BSTAR":0.00068696695,"MEAN_MOTION_DOT":0.00020043,"MEAN_MOTION_DDOT":0},{"OBJECT_NAME":"CERISE","OBJECT_ID":"1995-033B","EPOCH":"2026-03-09T23:11:27.589056","MEAN_MOTION":15.32047731,"ECCENTRICITY":0.00057118,"INCLINATION":98.325,"RA_OF_ASC_NODE":273.5192,"ARG_OF_PERICENTER":211.8754,"MEAN_ANOMALY":148.214,"EPHEMERIS_TYPE":0,"CLASSIFICATION_TYPE":"U","NORAD_CAT_ID":23606,"ELEMENT_SET_NO":999,"REV_AT_EPOCH":66468,"BSTAR":0.00062940675,"MEAN_MOTION_DOT":0.00019422,"MEAN_MOTION_DDOT":0}]
